{"type":"FeatureCollection","features":[{"type":"Feature","id":1,"geometry":{"type":"Polygon","coordinates":[[[-123.78004011499996,49.129959793000069],[-123.78034287099996,49.130087262000075],[-123.78131626199996,49.130668205000063],[-123.78170550899995,49.130823995000071],[-123.78198640099998,49.130767093000031],[-123.78222397299999,49.130639302000077],[-123.78224525399997,49.130398177000075],[-123.78127197699996,49.129902334000064],[-123.78083925899995,49.129562200000066],[-123.78071415399995,49.129412008000031],[-123.78102750199997,49.129392235000068],[-123.78176282599998,49.129746380000029],[-123.78254157799995,49.13024232600003],[-123.78284431999998,49.130355612000074],[-123.78340615299999,49.130270172000053],[-123.78392486299998,49.130269860000055],[-123.78422732499996,49.130184568000061],[-123.78431357199997,49.130042686000081],[-123.78398811299996,49.129149344000041],[-123.78385822899997,49.129007596000065],[-123.78362043499999,49.128965187000063],[-123.78292902799996,49.129107435000037],[-123.78269146599996,49.129235228000027],[-123.78217284399994,49.129292275000068],[-123.78191342699995,49.129249876000074],[-123.78169718899994,49.129164912000078],[-123.78156718199995,49.128923874000066],[-123.78135085699995,49.128782168000043],[-123.78115618699997,49.128668818000051],[-123.78065886599995,49.128498909000029],[-123.78018343699995,49.128527549000069],[-123.78005384499994,49.128584361000037],[-123.78003238499997,49.128697838000051],[-123.77973045299996,49.129180240000039],[-123.77973093699995,49.129549008000026],[-123.78004011499996,49.129959793000069]]]},"properties":{"OBJECTID_1":1,"FEATURE_ID":15482873,"stand_id":1,"agb_2019":153.96299999999999,"agb_2024":150.91800000000001,"agb_change":-3.0449999999999875,"Shape_Length":0.015307590968517837,"Shape_Area":5.6666829121414436e-06,"dom_group":"Stable_forest","dom_prop":0.61737089201877904}},{"type":"Feature","id":2,"geometry":{"type":"Polygon","coordinates":[[[-123.75810946799999,49.11255557100003],[-123.75796449899997,49.112643524000077],[-123.75774650499994,49.112699521000081],[-123.75729450199998,49.112720522000075],[-123.75712474499994,49.112806092000028],[-123.75712983399995,49.113114501000041],[-123.75723491799999,49.113399946000072],[-123.75736818599995,49.113499023000031],[-123.75785754499998,49.113659291000033],[-123.75792838799998,49.113736576000065],[-123.75788361599996,49.114081852000027],[-123.75800345899995,49.114256815000033],[-123.75814673499997,49.114369897000074],[-123.75877543499996,49.114470164000068],[-123.75946233799999,49.114426067000068],[-123.75975732899997,49.114430905000063],[-123.76012396099998,49.114492273000053],[-123.76042210899999,49.11441411800007],[-123.76048900299998,49.11431833000006],[-123.76046476199997,49.114124177000065],[-123.76036334699995,49.114018707000071],[-123.75974913199997,49.113814880000064],[-123.75958556899997,49.113680717000079],[-123.75951497399996,49.113319716000035],[-123.75944464399998,49.11322860000007],[-123.75888917399999,49.112866558000064],[-123.75832661099997,49.112691249000079],[-123.75810946799999,49.11255557100003]]]},"properties":{"OBJECTID_1":2,"FEATURE_ID":15483050,"stand_id":2,"agb_2019":317.75400000000002,"agb_2024":317.04599999999999,"agb_change":-0.70800000000002683,"Shape_Length":0.0087871869007363733,"Shape_Area":3.6789513607696451e-06,"dom_group":"Stable_forest","dom_prop":0.917998191136569}},{"type":"Feature","id":3,"geometry":{"type":"Polygon","coordinates":[[[-123.80001543799995,49.130784708000078],[-123.79926550599998,49.130536520000078],[-123.79823651299995,49.130426517000046],[-123.79797351299999,49.13037551900004],[-123.79759692299996,49.130230181000059],[-123.79720613399996,49.130861174000074],[-123.79698861099996,49.130972458000031],[-123.79747637199995,49.13141470000005],[-123.79790967899999,49.132130762000031],[-123.79807111699995,49.13219771200005],[-123.798723731,49.132272152000041],[-123.79947229399994,49.132412548000048],[-123.79963069799999,49.132565450000072],[-123.79968326399995,49.132931721000034],[-123.79966578799997,49.133425923000061],[-123.79952341999996,49.133746239000061],[-123.79951580799997,49.133961103000047],[-123.79966966999996,49.134242932000063],[-123.79965750999997,49.13458672400003],[-123.79938565499998,49.134862063000071],[-123.79895539899996,49.13498450000003],[-123.79852893499998,49.134999508000078],[-123.79833398299996,49.134953533000044],[-123.79682689199996,49.134952058000067],[-123.79665936199996,49.135056998000039],[-123.79661012099996,49.135521990000029],[-123.79620952299996,49.135723214000052],[-123.79552369599998,49.135790384000074],[-123.79420233499997,49.135624624000059],[-123.79364318199998,49.135474982000062],[-123.79293137799999,49.135192086000075],[-123.79199105799995,49.134976024000082],[-123.79150812099999,49.134826331000056],[-123.79000890299994,49.134610622000025],[-123.78921963099998,49.134276163000038],[-123.78884590299998,49.134399081000026],[-123.78874878699997,49.134505537000052],[-123.78858588399999,49.135339341000076],[-123.78974951699996,49.135530516000074],[-123.79086151099995,49.135667519000037],[-123.79215151599999,49.135704520000047],[-123.79255150499995,49.135818520000043],[-123.79448651099995,49.135966518000032],[-123.79491251599995,49.136080519000075],[-123.79520051199995,49.136033518000033],[-123.79586050799998,49.136164522000058],[-123.79702750499996,49.136218515000053],[-123.79763351699995,49.136376519000066],[-123.80001545299996,49.136703956000076],[-123.80001543799995,49.130784708000078]]]},"properties":{"OBJECTID_1":3,"FEATURE_ID":15487227,"stand_id":3,"agb_2019":275.77100000000002,"agb_2024":277.40800000000002,"agb_change":1.6370000000000005,"Shape_Length":0.039034289744454227,"Shape_Area":1.6066489574780647e-05,"dom_group":"Stable_forest","dom_prop":0.50797817227326103}},{"type":"Feature","id":4,"geometry":{"type":"Polygon","coordinates":[[[-123.76337194399997,49.118636543000036],[-123.76395767099996,49.118761849000066],[-123.76413484899996,49.118844347000049],[-123.76477226599997,49.119185714000025],[-123.76490427999994,49.119338107000033],[-123.76526687299997,49.119573223000032],[-123.76603755099995,49.119938497000078],[-123.76637467199998,49.120045000000061],[-123.76652610999997,49.120028105000074],[-123.76659778499999,49.11997582500004],[-123.76660796499999,49.119841535000035],[-123.76651190699999,49.119648407000057],[-123.76661249899996,49.119401992000064],[-123.76656115899999,49.119185682000079],[-123.76625178799998,49.11896831100006],[-123.76552567199997,49.11859737900005],[-123.76434661699994,49.118136980000031],[-123.76435054699999,49.117906047000076],[-123.76427168899994,49.117777229000069],[-123.76398047299995,49.117524886000069],[-123.76360822599997,49.117371496000032],[-123.76344957899994,49.117213152000033],[-123.76339825599996,49.11699684000007],[-123.76314195299994,49.116814724000051],[-123.76283713899994,49.116691787000036],[-123.76164549499998,49.116622623000069],[-123.76105983899998,49.11645666700008],[-123.76061576199999,49.116373057000033],[-123.76026876599997,49.116371624000067],[-123.76016857499997,49.116428143000064],[-123.76139249799996,49.117182521000075],[-123.76179449999995,49.117486523000082],[-123.76269250199999,49.118018525000082],[-123.76321949599998,49.118411518000073],[-123.76337194399997,49.118636543000036]]]},"properties":{"OBJECTID_1":4,"FEATURE_ID":15482933,"stand_id":4,"agb_2019":240.40800000000002,"agb_2024":243.28100000000001,"agb_change":2.8729999999999905,"Shape_Length":0.01578731802403038,"Shape_Area":6.2380282037879983e-06,"dom_group":"Stable_forest","dom_prop":0.87740213523131705}},{"type":"Feature","id":5,"geometry":{"type":"Polygon","coordinates":[[[-123.79189216599997,49.133205489000034],[-123.79224939799997,49.133545692000041],[-123.79247658399998,49.133673205000036],[-123.79296326499997,49.133843090000028],[-123.79322298099999,49.134034410000027],[-123.79325602699998,49.134417387000042],[-123.79293205999994,49.134609111000032],[-123.79257543699998,49.134651915000063],[-123.79228355499998,49.134630833000074],[-123.79144001499998,49.134354798000061],[-123.79046683899998,49.134121395000079],[-123.78985069599997,49.134100529000079],[-123.78921963099998,49.134276163000038],[-123.79000890299994,49.134610622000025],[-123.79150812099999,49.134826331000056],[-123.79199105799995,49.134976024000082],[-123.79293137799999,49.135192086000075],[-123.79364318199998,49.135474982000062],[-123.79420233499997,49.135624624000059],[-123.79552369599998,49.135790384000074],[-123.79620952299996,49.135723214000052],[-123.79661012099996,49.135521990000029],[-123.79665936199996,49.135056998000039],[-123.79682689199996,49.134952058000067],[-123.79833398299996,49.134953533000044],[-123.79852893499998,49.134999508000078],[-123.79895539899996,49.13498450000003],[-123.79938565499998,49.134862063000071],[-123.79965750999997,49.13458672400003],[-123.79966966999996,49.134242932000063],[-123.79951580799997,49.133961103000047],[-123.79952341999996,49.133746239000061],[-123.79966578799997,49.133425923000061],[-123.79968326399995,49.132931721000034],[-123.79963069799999,49.132565450000072],[-123.79947229399994,49.132412548000048],[-123.798723731,49.132272152000041],[-123.79807111699995,49.13219771200005],[-123.79790967899999,49.132130762000031],[-123.79747637199995,49.13141470000005],[-123.79698861099996,49.130972458000031],[-123.79649317399998,49.131095749000053],[-123.79588506799996,49.131028321000031],[-123.79449082899998,49.131050584000036],[-123.79390707499999,49.130987165000079],[-123.79334826699994,49.130778023000062],[-123.79308863199998,49.131140716000061],[-123.79253829099997,49.131694318000029],[-123.79244175299999,49.132162492000077],[-123.79244229799997,49.132502943000077],[-123.79237760999996,49.132609374000026],[-123.79192419299994,49.132950129000051],[-123.79189216599997,49.133205489000034]]]},"properties":{"OBJECTID_1":5,"FEATURE_ID":15482939,"stand_id":5,"agb_2019":245.113,"agb_2024":251.98700000000002,"agb_change":6.8740000000000236,"Shape_Length":0.029553098590020668,"Shape_Area":2.9028149689689677e-05,"dom_group":"Stable_forest","dom_prop":0.83816840576386498}},{"type":"Feature","id":6,"geometry":{"type":"Polygon","coordinates":[[[-123.77065359299996,49.127409280000052],[-123.77160416099997,49.127296940000065],[-123.77208735799996,49.127109322000081],[-123.77244038999999,49.127110750000043],[-123.77368714799996,49.127642364000053],[-123.77436094499996,49.127666138000052],[-123.77493903999999,49.12762632700003],[-123.77519638799998,49.127564174000042],[-123.77542202799998,49.127459764000037],[-123.77555275999998,49.127207528000042],[-123.77529795799995,49.126995872000066],[-123.77517194299998,49.126742605000061],[-123.77558994799995,49.126660023000056],[-123.77671401999999,49.126580270000034],[-123.77677508399995,49.126917537000054],[-123.77699778799996,49.127129057000047],[-123.77709192099996,49.127361129000064],[-123.77769859599999,49.127700569000069],[-123.77827493899997,49.127850311000032],[-123.77917281099997,49.127938141000072],[-123.77940952499995,49.128272816000049],[-123.77953992599998,49.128804685000034],[-123.779410515,49.129017542000042],[-123.77895685899995,49.129230578000033],[-123.77847148099994,49.129975584000078],[-123.77860157199996,49.130273393000039],[-123.77996412099998,49.130804563000027],[-123.78083993099995,49.131059391000065],[-123.78113193099995,49.131186888000059],[-123.78255978499999,49.132015879000051],[-123.78288425299996,49.132164628000055],[-123.78343567299999,49.132291960000032],[-123.78453829999995,49.132397676000039],[-123.78544653699998,49.132609886000068],[-123.78561730799998,49.13259376700006],[-123.78567136699996,49.132525973000043],[-123.78564335099998,49.132289895000042],[-123.78553488799997,49.132024027000057],[-123.78521048499999,49.131882402000031],[-123.78507538699995,49.131882486000052],[-123.78410241999995,49.131634878000057],[-123.78391326499997,49.131617266000035],[-123.78342710699997,49.131723937000061],[-123.78323799699996,49.13172404900007],[-123.78283256299994,49.131600192000064],[-123.78277837399997,49.131493857000066],[-123.78280526199995,49.13140519600006],[-123.78310232899997,49.131316364000043],[-123.78329117999999,49.131121237000059],[-123.78361509799998,49.130926018000025],[-123.78388524299999,49.130908121000061],[-123.78458778599997,49.130978606000042],[-123.78529052599998,49.131190919000062],[-123.78580393499999,49.131243786000027],[-123.78612794799994,49.131119477000027],[-123.78620879499999,49.130977591000033],[-123.78615444199994,49.130764882000051],[-123.78626232699997,49.13064071000008],[-123.78626220199999,49.130552069000032],[-123.78620798699995,49.130427992000079],[-123.78585624699997,49.130073640000035],[-123.78582898099995,49.129896369000051],[-123.78520750699994,49.12982584000008],[-123.78504527399997,49.129737293000062],[-123.78499106299995,49.129613225000071],[-123.78504477099995,49.129382719000034],[-123.78558481899995,49.129205083000045],[-123.78563869899995,49.129098676000069],[-123.78561140099998,49.128903680000064],[-123.78568254499999,49.128665210000065],[-123.78411079399996,49.128206185000067],[-123.78307291599998,49.127972764000049],[-123.78158061799996,49.127356593000059],[-123.78076942199999,49.126888960000031],[-123.78028225799994,49.126272187000041],[-123.78020592399997,49.124942461000046],[-123.77979351199997,49.124832523000066],[-123.77958750199997,49.124815519000038],[-123.77913550399995,49.124863524000034],[-123.77861449999995,49.124830522000082],[-123.77824150199996,49.12465252100003],[-123.77802150299999,49.124618518000034],[-123.77765450899994,49.124756516000048],[-123.77677850399999,49.124906520000081],[-123.77638050799999,49.124890522000044],[-123.77607751199997,49.12480251900007],[-123.77596750199996,49.124803523000026],[-123.77569551199997,49.124904516000072],[-123.77529850799999,49.124879520000036],[-123.77476051099995,49.124712523000028],[-123.77387250099997,49.124026516000072],[-123.77236850399999,49.123306521000075],[-123.77165950299997,49.122727521000058],[-123.77139649999998,49.122594525000068],[-123.77119050699997,49.122532518000071],[-123.77083551099997,49.122516517000065],[-123.77038450299995,49.122591524000029],[-123.77024750699997,49.122691519000057],[-123.76966050499999,49.122831523000059],[-123.76928950699994,49.122770522000053],[-123.76902850299996,49.122654522000062],[-123.76871950699996,49.122207524000032],[-123.76863650999996,49.12215352000004],[-123.76854150399998,49.122171517000027],[-123.76851350399994,49.122225523000054],[-123.76813050799996,49.122337525000034],[-123.76787450499995,49.122492518000058],[-123.76742749999994,49.122854520000033],[-123.76722450899996,49.123116525000057],[-123.76713349899995,49.123440522000067],[-123.76700050799997,49.123613520000049],[-123.76697449899996,49.12377551700007],[-123.76759750399998,49.124194523000028],[-123.76812250999996,49.124414524000031],[-123.76838850899998,49.124763524000059],[-123.76847551199995,49.12507051700004],[-123.76838850699994,49.125609522000047],[-123.76847450499997,49.125941521000072],[-123.76867151199997,49.126173520000066],[-123.76979250799997,49.126950525000041],[-123.77035951099998,49.127216523000072],[-123.77065359299996,49.127409280000052]],[[-123.78004011499996,49.129959793000069],[-123.77973093699995,49.129549008000026],[-123.77973045299996,49.129180240000039],[-123.78003238499997,49.128697838000051],[-123.78005384499994,49.128584361000037],[-123.78018343699995,49.128527549000069],[-123.78065886599995,49.128498909000029],[-123.78115618699997,49.128668818000051],[-123.78135085699995,49.128782168000043],[-123.78156718199995,49.128923874000066],[-123.78169718899994,49.129164912000078],[-123.78191342699995,49.129249876000074],[-123.78217284399994,49.129292275000068],[-123.78269146599996,49.129235228000027],[-123.78292902799996,49.129107435000037],[-123.78362043499999,49.128965187000063],[-123.78385822899997,49.129007596000065],[-123.78398811299996,49.129149344000041],[-123.78431357199997,49.130042686000081],[-123.78422732499996,49.130184568000061],[-123.78392486299998,49.130269860000055],[-123.78340615299999,49.130270172000053],[-123.78284431999998,49.130355612000074],[-123.78254157799995,49.13024232600003],[-123.78176282599998,49.129746380000029],[-123.78102750199997,49.129392235000068],[-123.78071415399995,49.129412008000031],[-123.78083925899995,49.129562200000066],[-123.78127197699996,49.129902334000064],[-123.78224525399997,49.130398177000075],[-123.78222397299999,49.130639302000077],[-123.78198640099998,49.130767093000031],[-123.78170550899995,49.130823995000071],[-123.78131626199996,49.130668205000063],[-123.78034287099996,49.130087262000075],[-123.78004011499996,49.129959793000069]]]},"properties":{"OBJECTID_1":6,"FEATURE_ID":15482894,"stand_id":6,"agb_2019":236.39200000000002,"agb_2024":237.90200000000002,"agb_change":1.5099999999999909,"Shape_Length":0.075291858717478857,"Shape_Area":6.0473490605979828e-05,"dom_group":"Stable_forest","dom_prop":0.69859718702948803}},{"type":"Feature","id":7,"geometry":{"type":"Polygon","coordinates":[[[-123.78561730799998,49.13259376700006],[-123.78544653699998,49.132609886000068],[-123.78453829999995,49.132397676000039],[-123.78343567299999,49.132291960000032],[-123.78288425299996,49.132164628000055],[-123.78255978499999,49.132015879000051],[-123.78113193099995,49.131186888000059],[-123.78083993099995,49.131059391000065],[-123.77996412099998,49.130804563000027],[-123.77860157199996,49.130273393000039],[-123.77847148099994,49.129975584000078],[-123.77895685899995,49.129230578000033],[-123.779410515,49.129017542000042],[-123.77953992599998,49.128804685000034],[-123.77940952499995,49.128272816000049],[-123.77917281099997,49.127938141000072],[-123.77827493899997,49.127850311000032],[-123.77769859599999,49.127700569000069],[-123.77709192099996,49.127361129000064],[-123.77699778799996,49.127129057000047],[-123.77677508399995,49.126917537000054],[-123.77671401999999,49.126580270000034],[-123.77558994799995,49.126660023000056],[-123.77517194299998,49.126742605000061],[-123.77529795799995,49.126995872000066],[-123.77555275999998,49.127207528000042],[-123.77542202799998,49.127459764000037],[-123.77519638799998,49.127564174000042],[-123.77493903999999,49.12762632700003],[-123.77436094499996,49.127666138000052],[-123.77368714799996,49.127642364000053],[-123.77244038999999,49.127110750000043],[-123.77208735799996,49.127109322000081],[-123.77160416099997,49.127296940000065],[-123.77065359299996,49.127409280000052],[-123.77095851199999,49.127787520000027],[-123.77098850099998,49.127994519000026],[-123.77093649999995,49.128156518000026],[-123.77140550699994,49.128414518000056],[-123.77176450599995,49.128555524000035],[-123.77208251299999,49.128760526000065],[-123.77230350099995,49.128812519000064],[-123.77273150899998,49.129062521000037],[-123.77291050899998,49.129123524000079],[-123.77317150699997,49.129113525000037],[-123.77325251299999,49.129057517000035],[-123.77333051199997,49.128824519000034],[-123.77376950699994,49.128721520000056],[-123.77418050699998,49.128773523000064],[-123.77467550399996,49.128949521000038],[-123.77567750399999,49.129842518000032],[-123.77565350199995,49.130013518000055],[-123.77579150299999,49.130120518000069],[-123.77644051299995,49.130422517000056],[-123.77769350699998,49.130882518000078],[-123.77926350099995,49.131239523000033],[-123.78064150899996,49.131752520000077],[-123.78083550999997,49.131921523000074],[-123.78109150499995,49.132406524000032],[-123.78173250999998,49.133104522000053],[-123.78267051099999,49.133501516000081],[-123.78373150399995,49.133846522000056],[-123.78409151199997,49.134031518000029],[-123.78530985799995,49.134403820000045],[-123.78541618199995,49.134035524000069],[-123.78548013899996,49.133418426000048],[-123.78599865299998,49.133205321000048],[-123.78590077999996,49.132801103000077],[-123.78567348799999,49.132588465000026],[-123.78561730799998,49.13259376700006]]]},"properties":{"OBJECTID_1":7,"FEATURE_ID":15483032,"stand_id":7,"agb_2019":106.68700000000001,"agb_2024":113.503,"agb_change":6.8159999999999883,"Shape_Length":0.040703362592607213,"Shape_Area":2.7330967157459721e-05,"dom_group":"Other","dom_prop":0.57438251543711405}},{"type":"Feature","id":8,"geometry":{"type":"Polygon","coordinates":[[[-123.78020592399997,49.124942461000046],[-123.78028225799994,49.126272187000041],[-123.78076942199999,49.126888960000031],[-123.78158061799996,49.127356593000059],[-123.78307291599998,49.127972764000049],[-123.78411079399996,49.128206185000067],[-123.78568254499999,49.128665210000065],[-123.78910634599998,49.129777583000077],[-123.79066290299994,49.129904209000074],[-123.79108454499999,49.129989039000066],[-123.79234970999994,49.130371178000075],[-123.79334826699994,49.130778023000062],[-123.79390707499999,49.130987165000079],[-123.79449082899998,49.131050584000036],[-123.79588506799996,49.131028321000031],[-123.79649317399998,49.131095749000053],[-123.79698861099996,49.130972458000031],[-123.79720613399996,49.130861174000074],[-123.79759692299996,49.130230181000059],[-123.79738050299994,49.130136518000029],[-123.79707551299998,49.129922522000072],[-123.79667250399996,49.129564517000063],[-123.79576751499997,49.129463522000037],[-123.79561551499995,49.129374517000031],[-123.79558451399998,49.129230522000057],[-123.79551650599996,49.129231516000061],[-123.79528450699996,49.129358522000075],[-123.79422950699995,49.12932151800004],[-123.79360051299994,49.129496517000064],[-123.79309350899996,49.129507518000025],[-123.79290150799994,49.129473517000065],[-123.79259751399997,49.129341520000025],[-123.79237851499994,49.129315520000034],[-123.79223950899996,49.129225516000076],[-123.79197850499997,49.129183514000033],[-123.79137251599997,49.128998519000049],[-123.79074150499997,49.128958520000026],[-123.78961250599997,49.128677522000032],[-123.78856650699998,49.128280517000064],[-123.78625050799997,49.127576521000037],[-123.78499550799995,49.127045517000056],[-123.78387950699999,49.126702519000048],[-123.78358951299998,49.126586516000032],[-123.78305150299997,49.12625752100007],[-123.78223650499996,49.125921518000041],[-123.78085450299994,49.125211519000061],[-123.78020592399997,49.124942461000046]]]},"properties":{"OBJECTID_1":8,"FEATURE_ID":15483018,"stand_id":8,"agb_2019":175.97999999999999,"agb_2024":177.72200000000001,"agb_change":1.7420000000000186,"Shape_Length":0.038734695030185853,"Shape_Area":2.3773557745163721e-05,"dom_group":"Stable_forest","dom_prop":0.55363144137415998}},{"type":"Feature","id":9,"geometry":{"type":"Polygon","coordinates":[[[-123.78858588399999,49.135339341000076],[-123.78874878699997,49.134505537000052],[-123.78884590299998,49.134399081000026],[-123.78921963099998,49.134276163000038],[-123.78985069599997,49.134100529000079],[-123.79046683899998,49.134121395000079],[-123.79144001499998,49.134354798000061],[-123.79228355499998,49.134630833000074],[-123.79257543699998,49.134651915000063],[-123.79293205999994,49.134609111000032],[-123.79325602699998,49.134417387000042],[-123.79322298099999,49.134034410000027],[-123.79296326499997,49.133843090000028],[-123.79247658399998,49.133673205000036],[-123.79224939799997,49.133545692000041],[-123.79189216599997,49.133205489000034],[-123.79163346699994,49.133334938000075],[-123.79130537699996,49.133393940000076],[-123.79032731599995,49.133363351000071],[-123.78996521999994,49.13325855000005],[-123.78966934799996,49.133286210000051],[-123.78943004099995,49.133365069000035],[-123.78923193599996,49.133643206000045],[-123.78900342299994,49.133774404000064],[-123.78885493399997,49.133804595000072],[-123.78833332499994,49.133807772000068],[-123.78815527999996,49.133749824000063],[-123.78712854899999,49.133094632000052],[-123.78676671499994,49.132735708000041],[-123.78622146699996,49.132398579000039],[-123.78596311699999,49.132305985000073],[-123.78564335099998,49.132289895000042],[-123.78567136699996,49.132525973000043],[-123.78561730799998,49.13259376700006],[-123.78567348799999,49.132588465000026],[-123.78590077999996,49.132801103000077],[-123.78599865299998,49.133205321000048],[-123.78548013899996,49.133418426000048],[-123.78541618199995,49.134035524000069],[-123.78530985799995,49.134403820000045],[-123.78591151099999,49.13462252100004],[-123.78659851099997,49.134770520000075],[-123.78743851699994,49.135035515000027],[-123.78858588399999,49.135339341000076]]]},"properties":{"OBJECTID_1":9,"FEATURE_ID":15482891,"stand_id":9,"agb_2019":285.10000000000002,"agb_2024":290.05400000000003,"agb_change":4.9540000000000077,"Shape_Length":0.020590450534938499,"Shape_Area":9.694959658682243e-06,"dom_group":"Stable_forest","dom_prop":0.66903181506065501}},{"type":"Feature","id":10,"geometry":{"type":"Polygon","coordinates":[[[-123.79189216599997,49.133205489000034],[-123.79192419299994,49.132950129000051],[-123.79237760999996,49.132609374000026],[-123.79244229799997,49.132502943000077],[-123.79244175299999,49.132162492000077],[-123.79253829099997,49.131694318000029],[-123.79308863199998,49.131140716000061],[-123.79334826699994,49.130778023000062],[-123.79234970999994,49.130371178000075],[-123.79108454499999,49.129989039000066],[-123.79066290299994,49.129904209000074],[-123.78910634599998,49.129777583000077],[-123.78568254499999,49.128665210000065],[-123.78561140099998,49.128903680000064],[-123.78563869899995,49.129098676000069],[-123.78558481899995,49.129205083000045],[-123.78504477099995,49.129382719000034],[-123.78499106299995,49.129613225000071],[-123.78504527399997,49.129737293000062],[-123.78520750699994,49.12982584000008],[-123.78582898099995,49.129896369000051],[-123.78585624699997,49.130073640000035],[-123.78620798699995,49.130427992000079],[-123.78626220199999,49.130552069000032],[-123.78626232699997,49.13064071000008],[-123.78615444199994,49.130764882000051],[-123.78620879499999,49.130977591000033],[-123.78612794799994,49.131119477000027],[-123.78580393499999,49.131243786000027],[-123.78529052599998,49.131190919000062],[-123.78458778599997,49.130978606000042],[-123.78388524299999,49.130908121000061],[-123.78361509799998,49.130926018000025],[-123.78329117999999,49.131121237000059],[-123.78310232899997,49.131316364000043],[-123.78280526199995,49.13140519600006],[-123.78277837399997,49.131493857000066],[-123.78283256299994,49.131600192000064],[-123.78323799699996,49.13172404900007],[-123.78342710699997,49.131723937000061],[-123.78391326499997,49.131617266000035],[-123.78410241999995,49.131634878000057],[-123.78507538699995,49.131882486000052],[-123.78521048499999,49.131882402000031],[-123.78553488799997,49.132024027000057],[-123.78564335099998,49.132289895000042],[-123.78596311699999,49.132305985000073],[-123.78622146699996,49.132398579000039],[-123.78676671499994,49.132735708000041],[-123.78712854899999,49.133094632000052],[-123.78815527999996,49.133749824000063],[-123.78833332499994,49.133807772000068],[-123.78885493399997,49.133804595000072],[-123.78900342299994,49.133774404000064],[-123.78923193599996,49.133643206000045],[-123.78943004099995,49.133365069000035],[-123.78966934799996,49.133286210000051],[-123.78996521999994,49.13325855000005],[-123.79032731599995,49.133363351000071],[-123.79130537699996,49.133393940000076],[-123.79163346699994,49.133334938000075],[-123.79189216599997,49.133205489000034]]]},"properties":{"OBJECTID_1":10,"FEATURE_ID":15482999,"stand_id":10,"agb_2019":190.904,"agb_2024":198.19200000000001,"agb_change":7.2880000000000109,"Shape_Length":0.02853450951521436,"Shape_Area":2.6889259435348156e-05,"dom_group":"Stable_forest","dom_prop":0.78819645068097399}},{"type":"Feature","id":11,"geometry":{"type":"Polygon","coordinates":[[[-123.80552834499997,49.136628663000067],[-123.80458151599998,49.136358382000026],[-123.80433272699997,49.136204482000039],[-123.80390606799995,49.136047871000073],[-123.80314380799996,49.136036294000064],[-123.80291982999995,49.135899441000049],[-123.80252625099996,49.135526482000046],[-123.80218642999995,49.135070925000036],[-123.80213257699995,49.134436233000031],[-123.80176264299996,49.134113673000058],[-123.80164149399997,49.133945018000077],[-123.80162256699998,49.133761241000059],[-123.80133180399997,49.133356477000063],[-123.80116573899994,49.133020328000043],[-123.80091991799998,49.13278305700004],[-123.80063329999996,49.132261584000048],[-123.80056532799995,49.132027018000031],[-123.80060075099999,49.131743978000031],[-123.80088750599998,49.130913660000033],[-123.80053150799995,49.13088751600003],[-123.80001543799995,49.130784708000078],[-123.80001545299996,49.136703956000076],[-123.80089050999999,49.136839522000059],[-123.80163050799996,49.136871518000078],[-123.80257751699997,49.136990519000051],[-123.80326450799998,49.137030517000028],[-123.80333250799998,49.137003518000029],[-123.80331651299997,49.136949516000072],[-123.80298550999998,49.136798519000081],[-123.80294350699995,49.136744517000068],[-123.80308050699995,49.136663522000049],[-123.80348951799999,49.13660651400005],[-123.80367051599995,49.136694513000066],[-123.80386551399999,49.136999518000039],[-123.80414351299999,49.137106517000063],[-123.80473351399996,49.137137520000067],[-123.80547451799998,49.137239514000044],[-123.80636651099996,49.13726151700007],[-123.80646150899997,49.137215515000037],[-123.80636451999999,49.137117516000046],[-123.80548151599999,49.136772516000065],[-123.80546551699996,49.136646520000056],[-123.80552834499997,49.136628663000067]]]},"properties":{"OBJECTID_1":11,"FEATURE_ID":15487233,"stand_id":11,"agb_2019":275.77100000000002,"agb_2024":277.40800000000002,"agb_change":1.6370000000000005,"Shape_Length":0.024286198552949858,"Shape_Area":1.2317008840214943e-05,"dom_group":"Stable_forest","dom_prop":0.58371652691371401}},{"type":"Feature","id":12,"geometry":{"type":"Polygon","coordinates":[[[-123.80552834499997,49.136628663000067],[-123.80597050799997,49.136543521000078],[-123.80627150599997,49.136532518000081],[-123.80644950899995,49.136586517000069],[-123.807001507,49.136636520000081],[-123.80719350699997,49.136697521000031],[-123.80724951899998,49.136795521000067],[-123.807467514,49.136713514000064],[-123.80764550899994,49.136730514000078],[-123.80793250799996,49.136683514000026],[-123.80893651499997,49.136811517000069],[-123.81050151099998,49.136889515000064],[-123.81133751399994,49.136892515000056],[-123.81181651199995,49.136826515000052],[-123.81238051299999,49.136985517000028],[-123.81317451399997,49.136925518000055],[-123.81510851599995,49.136938519000068],[-123.81562751799999,49.136808517000077],[-123.81621551099994,49.136714513000072],[-123.81658352099998,49.136604515000045],[-123.81693951999995,49.136583512000072],[-123.81700651199998,49.136537518000068],[-123.81712551899994,49.136204514000042],[-123.81699951399997,49.136043517000076],[-123.81667851999998,49.135811514000068],[-123.81671851299996,49.135740512000041],[-123.81690951499996,49.135701518000076],[-123.81696451899995,49.135639520000041],[-123.81686450799998,49.135342519000062],[-123.81651451999994,49.134914515000048],[-123.81629350899999,49.13482551900006],[-123.81605751199999,49.134629515000029],[-123.81532751199995,49.134408515000075],[-123.81466351499995,49.134089514000038],[-123.81436151499997,49.134029516000055],[-123.81345051199997,49.133739514000069],[-123.81311751499999,49.133444520000069],[-123.81318451599998,49.133336521000047],[-123.81315551499995,49.133282517000055],[-123.81282251799996,49.133032515000082],[-123.81271150799995,49.132889513000066],[-123.81196650799995,49.13262551300005],[-123.81134751799999,49.132467514000041],[-123.81099051799998,49.13243351400007],[-123.81016451399995,49.132232516000045],[-123.80982051099994,49.132189518000075],[-123.80938150699996,49.132211518000076],[-123.80891451199994,49.132178513000042],[-123.80860151299999,49.132270513000037],[-123.80821850799998,49.132282517000078],[-123.80794450999997,49.132337519000032],[-123.80768350699998,49.132340515000067],[-123.80716250699999,49.132272522000051],[-123.80659751699994,49.132060514000045],[-123.80637450899997,49.13191751800008],[-123.80625855399995,49.131486520000067],[-123.80607750699994,49.131316514000048],[-123.80540250999996,49.131060514000069],[-123.80483851399998,49.130893520000029],[-123.80449451099997,49.130940520000081],[-123.80378050999997,49.130900516000054],[-123.80252551799998,49.131242514000064],[-123.80236051199995,49.131252518000053],[-123.80113751099998,49.130937520000032],[-123.80088750599998,49.130913660000033],[-123.80060075099999,49.131743978000031],[-123.80056532799995,49.132027018000031],[-123.80063329999996,49.132261584000048],[-123.80091991799998,49.13278305700004],[-123.80116573899994,49.133020328000043],[-123.80133180399997,49.133356477000063],[-123.80162256699998,49.133761241000059],[-123.80164149399997,49.133945018000077],[-123.80176264299996,49.134113673000058],[-123.80213257699995,49.134436233000031],[-123.80218642999995,49.135070925000036],[-123.80252625099996,49.135526482000046],[-123.80291982999995,49.135899441000049],[-123.80314380799996,49.136036294000064],[-123.80390606799995,49.136047871000073],[-123.80433272699997,49.136204482000039],[-123.80458151599998,49.136358382000026],[-123.80552834499997,49.136628663000067]]]},"properties":{"OBJECTID_1":12,"FEATURE_ID":15487285,"stand_id":12,"agb_2019":233.71300000000002,"agb_2024":240.24700000000001,"agb_change":6.5339999999999918,"Shape_Length":0.039583225116601992,"Shape_Area":6.4599264653988797e-05,"dom_group":"Stable_forest","dom_prop":0.62207564670720406}},{"type":"Feature","id":13,"geometry":{"type":"Polygon","coordinates":[[[-123.75712474499994,49.112806092000028],[-123.75687449799995,49.112992524000049],[-123.75671250399995,49.113246524000033],[-123.75637250499994,49.113364524000076],[-123.75630649399994,49.113474522000047],[-123.75633550599997,49.113581521000071],[-123.75662449399999,49.113741524000034],[-123.75682050499995,49.114009520000081],[-123.75742950299997,49.114419523000038],[-123.75776249499995,49.114587519000054],[-123.75866149999996,49.115176519000045],[-123.75926849499996,49.115459521000048],[-123.75957749499997,49.11589852000003],[-123.75985449999996,49.11610352100007],[-123.76016857499997,49.116428143000064],[-123.76026876599997,49.116371624000067],[-123.76061576199999,49.116373057000033],[-123.76105983899998,49.11645666700008],[-123.76164549499998,49.116622623000069],[-123.76283713899994,49.116691787000036],[-123.76314195299994,49.116814724000051],[-123.76339825599996,49.11699684000007],[-123.76344957899994,49.117213152000033],[-123.76360822599997,49.117371496000032],[-123.76398047299995,49.117524886000069],[-123.76427168899994,49.117777229000069],[-123.76435054699999,49.117906047000076],[-123.76434661699994,49.118136980000031],[-123.76552567199997,49.11859737900005],[-123.76625178799998,49.11896831100006],[-123.76656115899999,49.119185682000079],[-123.76661249899996,49.119401992000064],[-123.76651190699999,49.119648407000057],[-123.76660796499999,49.119841535000035],[-123.76659778499999,49.11997582500004],[-123.76652610999997,49.120028105000074],[-123.76637467199998,49.120045000000061],[-123.76603755099995,49.119938497000078],[-123.76526687299997,49.119573223000032],[-123.76490427999994,49.119338107000033],[-123.76477226599997,49.119185714000025],[-123.76413484899996,49.118844347000049],[-123.76395767099996,49.118761849000066],[-123.76337194399997,49.118636543000036],[-123.76332049599995,49.118689521000078],[-123.76316850799998,49.118708525000045],[-123.76315750799995,49.118762524000033],[-123.76338150299995,49.119058521000056],[-123.76480350699995,49.119867526000064],[-123.76499650799997,49.119938525000066],[-123.76626950699995,49.12071252100003],[-123.76661249999995,49.120763522000061],[-123.76669550099996,49.120808520000026],[-123.76694750399997,49.121147518000043],[-123.76705950099995,49.121220525000069],[-123.76745850799995,49.12135151800004],[-123.76814450999996,49.121365517000072],[-123.76892750699994,49.121486520000076],[-123.76909350099999,49.121566517000076],[-123.76932549999998,49.121592519000046],[-123.76933949999994,49.121473521000041],[-123.76893750899995,49.12033451800005],[-123.76856750699994,49.119572524000034],[-123.76834449799998,49.119213524000031],[-123.76787150399997,49.118812518000027],[-123.76682050399995,49.118225517000042],[-123.76550949899996,49.117614525000079],[-123.76499449699998,49.117123522000043],[-123.76453749599995,49.116774520000035],[-123.76432849599996,49.116541521000045],[-123.76391349699998,49.116329520000079],[-123.76295850599996,49.115670522000073],[-123.76284449699995,49.115480519000073],[-123.76259450399999,49.115240521000032],[-123.76129349499996,49.114340517000073],[-123.76105550699998,49.114026524000053],[-123.76035950299996,49.113293524000028],[-123.76017650599999,49.113025525000069],[-123.75992749499994,49.112801518000026],[-123.75976950199998,49.112443524000071],[-123.75960349599995,49.112327521000054],[-123.75931549999996,49.112193521000052],[-123.75884749599999,49.112143520000075],[-123.75864349699998,49.112189526000066],[-123.75810946799999,49.11255557100003],[-123.75832661099997,49.112691249000079],[-123.75888917399999,49.112866558000064],[-123.75944464399998,49.11322860000007],[-123.75951497399996,49.113319716000035],[-123.75958556899997,49.113680717000079],[-123.75974913199997,49.113814880000064],[-123.76036334699995,49.114018707000071],[-123.76046476199997,49.114124177000065],[-123.76048900299998,49.11431833000006],[-123.76042210899999,49.11441411800007],[-123.76012396099998,49.114492273000053],[-123.75975732899997,49.114430905000063],[-123.75946233799999,49.114426067000068],[-123.75877543499996,49.114470164000068],[-123.75814673499997,49.114369897000074],[-123.75800345899995,49.114256815000033],[-123.75788361599996,49.114081852000027],[-123.75792838799998,49.113736576000065],[-123.75785754499998,49.113659291000033],[-123.75736818599995,49.113499023000031],[-123.75723491799999,49.113399946000072],[-123.75712983399995,49.113114501000041],[-123.75712474499994,49.112806092000028]]]},"properties":{"OBJECTID_1":13,"FEATURE_ID":15483081,"stand_id":13,"agb_2019":135.15000000000001,"agb_2024":140.98500000000001,"agb_change":5.835000000000008,"Shape_Length":0.048526901719873623,"Shape_Area":2.3186539016369951e-05,"dom_group":"Stable_forest","dom_prop":0.62395556628833604}}]}