{"type":"FeatureCollection","features":[{"type":"Feature","id":1,"geometry":{"type":"LineString","coordinates":[[-123.76932369999997,49.121468500000049],[-123.76922319999994,49.121263400000032],[-123.76892189999995,49.120329100000049],[-123.76868649999994,49.119904500000075],[-123.76862379999994,49.119746600000042],[-123.76850409999997,49.119583000000034],[-123.76827289999994,49.119286400000078],[-123.76801159999997,49.119054200000051],[-123.76783299999994,49.118871600000034],[-123.76751499999995,49.118701300000055],[-123.76673789999995,49.118305000000078],[-123.76642209999994,49.118147100000044],[-123.76608489999995,49.117935700000032],[-123.76559029999999,49.117661600000076],[-123.76549359999996,49.11760890000005],[-123.76543859999998,49.117536200000075],[-123.76516059999994,49.117314100000044],[-123.76497919999997,49.117117500000063],[-123.76483529999996,49.117001300000027],[-123.76479579999994,49.116992300000049],[-123.76453269999996,49.116777400000046],[-123.76453379999998,49.116717400000027],[-123.76438729999995,49.116619100000037],[-123.76431259999998,49.11653640000003],[-123.76389849999998,49.116324200000065],[-123.76377289999999,49.11622600000004],[-123.76358039999997,49.116119100000049],[-123.76294299999995,49.115664800000047],[-123.76282939999999,49.115475400000037],[-123.76257919999995,49.11523470000003],[-123.76233089999999,49.115083700000071],[-123.76217749999995,49.114949900000056],[-123.76205419999997,49.114878700000077],[-123.76185939999999,49.114717700000028],[-123.7614438,49.114477000000079],[-123.76120889999999,49.114263400000027],[-123.76104009999995,49.114021300000047],[-123.76074849999998,49.11375350000003],[-123.76063589999995,49.113601100000039],[-123.76034379999999,49.11328780000008],[-123.76016099999998,49.113020100000028],[-123.76005029999999,49.112903300000028],[-123.75991219999997,49.112796500000059],[-123.75984039999997,49.112598500000047],[-123.75975439999996,49.112437600000078],[-123.75958849999995,49.112322200000051],[-123.75930019999998,49.112188300000071],[-123.75909349999995,49.112145600000076],[-123.75883209999995,49.112138500000071],[-123.75862809999995,49.112184100000036],[-123.75853389999997,49.112239600000066],[-123.75835619999998,49.11239340000003],[-123.75794909999996,49.112638400000037],[-123.75773079999999,49.112693900000068],[-123.75748509999994,49.112705300000073],[-123.75738759999996,49.112696800000037],[-123.75727929999999,49.112715300000048],[-123.75718319999999,49.112750900000037],[-123.75693899999999,49.112914700000033],[-123.75685909999999,49.112987300000043],[-123.75670979999995,49.113168200000075],[-123.75669739999995,49.113240800000028],[-123.75661649999995,49.113276400000075],[-123.75645209999999,49.113313500000061],[-123.75635699999998,49.113359000000059],[-123.75630399999994,49.113414600000056],[-123.75629029999999,49.11351280000008],[-123.75632039999999,49.113575500000081],[-123.75637489999997,49.113629600000081],[-123.75644369999998,49.113673800000072],[-123.75660879999998,49.11373640000005],[-123.75666449999994,49.113780600000041],[-123.75670719999999,49.113824700000066],[-123.75675049999995,49.113941500000067],[-123.75680459999995,49.114004200000068],[-123.75716519999997,49.114226400000064],[-123.75741449999998,49.114414400000044],[-123.75774669999998,49.114582400000074],[-123.75799549999999,49.114751900000044],[-123.75809259999994,49.114796100000035],[-123.75824369999998,49.114902900000061],[-123.75852119999996,49.11506380000003],[-123.75864629999995,49.115170600000056],[-123.75908739999994,49.115392800000052],[-123.75925329999995,49.115454000000057],[-123.75935139999996,49.115562300000079],[-123.75956219999995,49.115892700000074],[-123.75964509999994,49.115973900000029],[-123.75983889999998,49.116097800000034],[-123.76015989999996,49.11642960000006],[-123.76060069999994,49.116687400000046],[-123.76081029999995,49.116856900000073],[-123.76137699999998,49.117177300000037],[-123.76155739999996,49.117336800000032],[-123.76177929999994,49.117480700000044],[-123.76204189999999,49.117621700000029],[-123.7626775,49.11801330000003],[-123.76320349999997,49.118406400000026],[-123.76334399999996,49.118567400000074],[-123.76335849999998,49.118638600000054],[-123.76330469999999,49.118684100000053],[-123.76315279999994,49.118702700000028],[-123.76315529999999,49.118810900000028],[-123.76328129999996,49.118927700000029],[-123.76336559999999,49.119053000000065],[-123.76441579999999,49.119621300000063],[-123.76478799999995,49.119862000000069],[-123.76498089999995,49.119933200000048],[-123.76525929999997,49.120119700000032],[-123.76557689999999,49.12027930000005],[-123.76588239999995,49.120502900000076],[-123.76610239999997,49.120599700000071],[-123.76617169999997,49.120662400000072],[-123.76625359999997,49.12070650000004],[-123.76636419999994,49.120742100000029],[-123.76659699999999,49.120757800000035],[-123.76668019999994,49.120803400000057],[-123.76674949999995,49.120874100000037],[-123.76682019999998,49.120945800000072],[-123.76693209999996,49.121142300000031],[-123.76704369999999,49.121215000000063],[-123.76729149999994,49.121320400000059],[-123.76744249999996,49.121346000000074],[-123.76753419999994,49.121347900000046],[-123.76812869999998,49.121360200000026],[-123.76884789999997,49.121471500000041],[-123.76891179999996,49.121481300000028],[-123.76907819999997,49.121561000000042],[-123.76916039999998,49.121569600000043],[-123.76922879999995,49.121595200000058],[-123.76930969999995,49.12158670000008],[-123.76932369999997,49.121468500000049]]},"properties":{"OBJECTID":1,"fid_1":220,"osm_id":-8338168,"access":" ","addr_house":" ","addr_hou_1":" ","addr_inter":" ","admin_leve":" ","aerialway":" ","aeroway":" ","amenity":" ","area":" ","barrier":" ","bicycle":" ","brand":" ","bridge":" ","boundary":" ","building":" ","constructi":" ","covered":" ","culvert":" ","cutting":" ","denominati":" ","disused":" ","embankment":" ","foot":" ","generator_":" ","harbour":" ","highway":" ","historic":" ","horse":" ","intermitte":" ","junction":" ","landuse":" ","layer":" ","leisure":" ","lock":" ","man_made":" ","military":" ","motorcar":" ","name":"Link Island","natural":" ","office":" ","oneway":" ","operator":" ","place":"island","population":" ","power":" ","power_sour":" ","public_tra":" ","railway":" ","ref":" ","religion":" ","route":" ","service":" ","shop":" ","sport":" ","surface":" ","toll":" ","tourism":" ","tower_type":" ","tracktype":" ","tunnel":" ","water":" ","waterway":" ","wetland":" ","width":" ","wood":" ","z_order":0,"way_area":620767,"path":"C:/Users/brian520.stu/Desktop/Final Project/GIS_projects/created_layers/project_geopackage.gpkg|layername=link_island_boundary","Shape_Length":0.033941715566146419}},{"type":"Feature","id":2,"geometry":{"type":"LineString","coordinates":[[-123.81710999999996,49.136280300000067],[-123.81710959999998,49.136199100000056],[-123.81698409999996,49.136038100000064],[-123.81666319999999,49.135806000000059],[-123.81670299999996,49.13573480000008],[-123.81689429999994,49.135696300000063],[-123.81694889999994,49.135633700000028],[-123.81693289999998,49.135590800000045],[-123.81694749999997,49.135571800000037],[-123.81690729999997,49.13552210000006],[-123.81688649999995,49.135458000000028],[-123.81684889999997,49.135337400000026],[-123.81663959999997,49.135096700000076],[-123.81656719999995,49.134961400000066],[-123.81649869999995,49.13490870000004],[-123.81627809999998,49.134820400000081],[-123.81617979999999,49.134739300000035],[-123.81615229999994,49.134695100000044],[-123.81604189999996,49.134623900000065],[-123.81565489999997,49.13448290000008],[-123.81542049999996,49.134428400000047],[-123.81531199999995,49.134403100000043],[-123.81496679999998,49.134253600000079],[-123.81485539999994,49.134172400000068],[-123.81479229999997,49.134145600000068],[-123.81464799999998,49.134084100000052],[-123.81434619999999,49.134024300000078],[-123.81413829999997,49.133944500000041],[-123.81386379999998,49.133874800000058],[-123.81343549999997,49.133733800000073],[-123.81333949999998,49.13367960000005],[-123.81329609999995,49.133589900000061],[-123.81324059999997,49.133537200000035],[-123.81315819999998,49.133501600000045],[-123.81310179999997,49.133439000000067],[-123.81311509999995,49.133376300000066],[-123.81316889999999,49.133330700000045],[-123.81314039999995,49.133276600000045],[-123.81308209999997,49.133219100000076],[-123.81301459999997,49.133151300000065],[-123.81290469999999,49.133098600000039],[-123.81280439999995,49.133019900000079],[-123.81277829999999,49.132954700000028],[-123.81269629999997,49.132883500000048],[-123.81195119999995,49.132620000000031],[-123.81173839999997,49.132565700000043],[-123.81133209999996,49.132462000000032],[-123.81097469999997,49.132427800000073],[-123.81078039999994,49.132366500000046],[-123.81014879999998,49.132226900000035],[-123.80980489999996,49.13218420000004],[-123.80941989999997,49.132203000000061],[-123.80936629999997,49.132205600000077],[-123.80914599999994,49.132171400000061],[-123.80889929999995,49.132172800000035],[-123.80875059999994,49.132228400000031],[-123.80858629999994,49.132265400000051],[-123.80820329999995,49.132276800000056],[-123.80792849999995,49.13233230000003],[-123.80766789999996,49.132335200000057],[-123.80729739999998,49.132301000000041],[-123.80714669999998,49.132266800000082],[-123.80703549999998,49.132212700000082],[-123.80658189999997,49.13205460000006],[-123.80635899999999,49.131912200000045],[-123.80631609999995,49.131813900000054],[-123.80631549999998,49.131678600000043],[-123.80624339999997,49.131480700000054],[-123.80617209999997,49.131382400000064],[-123.80610619999999,49.131340200000068],[-123.80606179999995,49.131311200000027],[-123.8058691,49.131231400000047],[-123.80562089999995,49.131161600000041],[-123.80538679999995,49.131054800000072],[-123.80485669999996,49.130898400000035],[-123.80482259999997,49.130888200000072],[-123.80475339999998,49.130879700000037],[-123.80461679999996,49.130898200000047],[-123.80447859999998,49.130935200000067],[-123.80409469999995,49.130893900000046],[-123.80376519999999,49.130895300000077],[-123.80328639999999,49.131012000000055],[-123.80321939999999,49.131028400000048],[-123.80304169999999,49.131071900000052],[-123.80250959999995,49.131237100000078],[-123.80240579999997,49.131243400000074],[-123.80234519999999,49.131247100000053],[-123.80204419999995,49.131185900000048],[-123.80167269999998,49.131071900000052],[-123.80112169999995,49.13093230000004],[-123.80051619999995,49.130882500000041],[-123.80002109999998,49.130787100000077],[-123.79955399999994,49.130610500000046],[-123.79927729999997,49.130537900000036],[-123.79925029999998,49.130530700000065],[-123.79870089999997,49.130462400000056],[-123.79842629999996,49.130455200000029],[-123.79795829999995,49.13036980000004],[-123.79736519999994,49.130130500000064],[-123.79706029999994,49.129916900000069],[-123.79690779999999,49.129746000000068],[-123.79675409999999,49.129612100000031],[-123.79665739999996,49.129559400000062],[-123.79628779999996,49.129508100000066],[-123.79587429999998,49.129492500000026],[-123.79575189999997,49.129458300000067],[-123.79565469999994,49.129414100000076],[-123.79559969999997,49.129368600000078],[-123.79556919999999,49.129224700000066],[-123.79550089999998,49.129226100000039],[-123.79526899999996,49.129352900000072],[-123.79505579999994,49.12933780000003],[-123.79492769999996,49.12932870000003],[-123.79457089999994,49.129340100000036],[-123.79421449999995,49.129315900000051],[-123.79396749999995,49.129380000000026],[-123.79383189999999,49.129435500000056],[-123.79358539999998,49.12949100000003],[-123.79307839999996,49.129502400000035],[-123.79288639999999,49.129468300000042],[-123.79270769999999,49.129371400000082],[-123.79258179999999,49.129335800000035],[-123.79245989999998,49.129335800000035],[-123.79236329999998,49.129310200000077],[-123.79222409999994,49.129220400000065],[-123.79196289999999,49.129177700000071],[-123.79135699999995,49.128992600000061],[-123.79102939999996,49.128986900000029],[-123.79072639999998,49.12895270000007],[-123.78959709999998,49.128672100000074],[-123.78935049999995,49.128583800000058],[-123.78894879999996,49.128407200000026],[-123.78855059999995,49.128274800000042],[-123.78821999999997,49.128169400000047],[-123.78781979999997,49.128064000000052],[-123.78741989999997,49.127923000000067],[-123.78681629999994,49.127733600000056],[-123.78663499999999,49.127676600000029],[-123.78623469999997,49.127571200000034],[-123.78601429999998,49.127482900000075],[-123.78573929999999,49.127340500000059],[-123.78528269999998,49.127172400000063],[-123.78498029999997,49.127040000000079],[-123.78442269999999,49.126858200000072],[-123.78419449999996,49.126783600000067],[-123.78386449999999,49.126696700000082],[-123.78357429999994,49.126581400000077],[-123.78318719999999,49.12633210000007],[-123.78303599999998,49.126252400000055],[-123.78273149999995,49.12614700000006],[-123.78255769999998,49.126068800000041],[-123.78222079999995,49.125916300000029],[-123.78161289999997,49.125587300000063],[-123.78128169999997,49.125436300000047],[-123.78102679999995,49.125303900000063],[-123.78083849999996,49.125205600000072],[-123.78050839999997,49.12506460000003],[-123.78025909999997,49.124957800000061],[-123.77994339999998,49.124860900000044],[-123.77977749999997,49.124826800000051],[-123.77957159999994,49.124809700000071],[-123.77928939999998,49.12483990000004],[-123.77912019999997,49.12485810000004],[-123.77867189999995,49.124829900000066],[-123.77859879999994,49.124825300000055],[-123.77822619999995,49.124647300000049],[-123.77800599999995,49.124613100000033],[-123.7778568,49.124650200000076],[-123.77763909999999,49.124751300000071],[-123.77729679999999,49.124806800000044],[-123.77696809999998,49.124880900000051],[-123.77683619999999,49.12489370000003],[-123.77676319999995,49.124900800000034],[-123.77655779999998,49.124902200000065],[-123.77636499999994,49.124885200000051],[-123.77613129999997,49.124817200000052],[-123.77606189999995,49.12479680000007],[-123.77595229999997,49.124798300000066],[-123.77578929999999,49.124879500000077],[-123.77568019999995,49.124899400000061],[-123.77548869999998,49.124899400000061],[-123.77528319999999,49.124873800000046],[-123.77506989999995,49.124822400000028],[-123.77474539999997,49.12470710000008],[-123.77445369999998,49.124466400000074],[-123.77430199999998,49.124368200000049],[-123.77407949999997,49.124163100000033],[-123.77385679999998,49.124020700000074],[-123.77360929999998,49.123922400000026],[-123.77311219999996,49.123683100000051],[-123.7728765,49.123540700000035],[-123.77259089999995,49.123395100000039],[-123.77247699999998,49.123337000000049],[-123.77235329999996,49.123301400000059],[-123.77210259999998,49.123123400000054],[-123.77182389999996,49.122855700000059],[-123.77164429999999,49.122721800000079],[-123.77138119999995,49.122589300000072],[-123.77117469999996,49.122526700000037],[-123.77103849999997,49.122509600000058],[-123.77082009999998,49.122511000000031],[-123.77064139999999,49.122558000000026],[-123.77054559999999,49.122558000000026],[-123.77029229999999,49.122569800000065],[-123.77021719999999,49.122554300000047],[-123.77013979999998,49.122607200000061],[-123.77009509999999,49.122674600000039],[-123.76988289999997,49.122760000000028],[-123.76976919999998,49.122805800000037],[-123.76964479999998,49.122825700000078],[-123.76935619999995,49.122781600000053],[-123.76927439999997,49.122764500000073],[-123.76917799999995,49.122722200000055],[-123.76901259999994,49.122649100000046],[-123.76881009999994,49.122513100000049],[-123.76864069999999,49.122333100000048],[-123.76861139999994,49.122237000000041],[-123.76858879999997,49.122192600000062],[-123.76853789999996,49.122191800000053],[-123.76849759999999,49.122220500000026],[-123.76811549999996,49.12233150000003],[-123.76804809999999,49.122385700000052],[-123.76799549999998,49.122413600000073],[-123.76789059999999,49.122469500000079],[-123.76785869999998,49.122486800000047],[-123.76772419999998,49.122622100000058],[-123.76763629999999,49.122685700000034],[-123.76749689999997,49.122786900000051],[-123.76741229999999,49.122848500000032],[-123.76735909999996,49.122916500000031],[-123.76720889999996,49.123110600000075],[-123.76714409999994,49.123272900000075],[-123.76711839999996,49.12343530000004],[-123.76701119999996,49.123545000000036],[-123.76698479999999,49.123607600000071],[-123.76695909999995,49.123770000000036],[-123.76702849999998,49.123832700000037],[-123.76712559999999,49.123876800000062],[-123.76738839999996,49.124044900000058],[-123.76758199999995,49.124188700000047],[-123.76799619999997,49.124346800000069],[-123.76810689999996,49.12440950000007],[-123.76837279999995,49.124758400000076],[-123.76845769999994,49.12495640000003],[-123.76846019999999,49.12506460000003],[-123.76837329999995,49.125604400000043],[-123.76844419999998,49.125765300000069],[-123.76845939999998,49.125936200000069],[-123.76850139999999,49.126008900000045],[-123.76865579999998,49.12616840000004],[-123.76884899999999,49.126293700000076],[-123.76902869999998,49.126454600000045],[-123.76915549999995,49.126542900000061],[-123.76977719999996,49.126944600000058],[-123.77034399999997,49.12721090000008],[-123.77052359999999,49.127317700000049],[-123.77067659999994,49.127433100000076],[-123.77083019999998,49.127594000000045],[-123.77094259999996,49.127782000000082],[-123.77097269999996,49.127988500000072],[-123.77091909999996,49.128088200000036],[-123.77092099999999,49.128150900000037],[-123.77098859999995,49.128205000000037],[-123.77121749999998,49.128259700000058],[-123.77143199999995,49.128364700000077],[-123.77175449999999,49.128553200000056],[-123.77206709999996,49.128754700000059],[-123.77217729999995,49.128798900000049],[-123.77228789999998,49.128807400000028],[-123.77239819999994,49.128878600000064],[-123.77249359999996,49.128914200000054],[-123.77271639999998,49.129056700000035],[-123.77289539999998,49.12911790000004],[-123.77308649999998,49.129126400000075],[-123.77315559999994,49.129107900000065],[-123.77323679999995,49.129052400000035],[-123.77331539999994,49.128818800000033],[-123.77350749999999,49.12876330000006],[-123.77375369999999,49.128716300000065],[-123.77416459999995,49.12876760000006],[-123.77442689999998,49.128874400000029],[-123.77465989999996,49.128944100000069],[-123.77478549999995,49.12904240000006],[-123.77487069999995,49.129150700000025],[-123.77514719999999,49.129364300000077],[-123.77520259999994,49.129417000000046],[-123.77523159999998,49.129489600000056],[-123.77530099999996,49.129552300000057],[-123.77541079999997,49.129605000000026],[-123.77548059999998,49.129659100000026],[-123.77552379999997,49.129721800000027],[-123.77566169999994,49.129837100000032],[-123.77563779999997,49.130008000000032],[-123.77577599999995,49.130114800000058],[-123.77632769999997,49.130354100000034],[-123.77642539999999,49.130416800000035],[-123.77767829999999,49.130876800000067],[-123.77816039999999,49.130972200000031],[-123.77842169999997,49.131042000000036],[-123.77868289999998,49.131084700000031],[-123.77898699999997,49.131183000000078],[-123.77924779999995,49.131234300000074],[-123.77956539999997,49.131366700000058],[-123.78021319999999,49.131570400000044],[-123.78062589999996,49.131747000000075],[-123.78070949999994,49.131799700000045],[-123.78082049999995,49.131916500000045],[-123.78107619999997,49.132400700000062],[-123.78140919999998,49.132731100000058],[-123.78148109999995,49.13287500000007],[-123.78171729999997,49.133098600000039],[-123.78179869999997,49.133124200000054],[-123.78206329999995,49.133258100000035],[-123.78246279999996,49.133407600000055],[-123.78265499999998,49.133495900000071],[-123.78371589999995,49.133840600000042],[-123.78388159999997,49.133937400000036],[-123.78407589999995,49.134025700000052],[-123.78439269999996,49.134132500000078],[-123.78497159999995,49.134280700000033],[-123.78559079999997,49.134519900000043],[-123.78589579999999,49.13461680000006],[-123.78658339999998,49.13476490000005],[-123.78720159999995,49.134940100000051],[-123.78742349999999,49.135029800000041],[-123.78775399999995,49.135108100000082],[-123.78809729999995,49.135222100000078],[-123.78857999999997,49.135336000000052],[-123.78921129999998,49.135421500000064],[-123.78973429999996,49.135525400000063],[-123.79037959999999,49.135593800000038],[-123.79084629999994,49.135662100000047],[-123.79101089999995,49.135679200000027],[-123.79147789999996,49.135684900000058],[-123.79183479999995,49.135673500000053],[-123.79213609999999,49.135699200000033],[-123.79235599999998,49.135741900000028],[-123.79253599999998,49.135813100000064],[-123.79278289999996,49.135838700000079],[-123.79357759999999,49.135877200000039],[-123.79411409999994,49.13594560000007],[-123.79430639999998,49.135944100000074],[-123.79447099999999,49.135961200000054],[-123.79470499999996,49.136041000000034],[-123.79489709999996,49.13607520000005],[-123.79518459999997,49.136028200000055],[-123.79584489999996,49.136159200000066],[-123.79661409999994,49.136216200000035],[-123.79701179999995,49.136213300000065],[-123.79731279999999,49.136274600000036],[-123.79761779999995,49.13637140000003],[-123.79871639999999,49.136516700000072],[-123.79970489999999,49.136671900000067],[-123.80010459999994,49.136704700000053],[-123.80043339999997,49.136774500000058],[-123.80114749999996,49.136859900000047],[-123.80161449999997,49.136865600000078],[-123.80215059999995,49.136942500000032],[-123.80256199999997,49.136985200000026],[-123.80324939999997,49.137025100000074],[-123.80331679999995,49.136998100000028],[-123.80330129999999,49.136943900000063],[-123.80309549999998,49.136837100000037],[-123.80296999999996,49.136793000000068],[-123.80292839999998,49.136738800000046],[-123.80296829999997,49.136694700000078],[-123.80306519999999,49.136657700000058],[-123.80330919999994,49.136610700000062],[-123.80347369999998,49.136600700000031],[-123.80361219999998,49.136644800000056],[-123.80365499999999,49.136689000000047],[-123.80376649999999,49.136914000000047],[-123.80385029999997,49.136993800000027],[-123.80412799999999,49.137100600000053],[-123.80448409999997,49.137133400000039],[-123.80471779999999,49.137131900000043],[-123.80499169999996,49.137183200000038],[-123.80545939999996,49.137234500000034],[-123.80581609999996,49.137263800000028],[-123.80657339999999,49.13732600000003],[-123.80674369999997,49.137282200000072],[-123.80652789999999,49.137175700000057],[-123.80634849999996,49.137112000000059],[-123.80604559999995,49.136988100000053],[-123.80565769999998,49.136864200000048],[-123.80546589999994,49.136767300000031],[-123.80543559999995,49.136704700000053],[-123.80544969999994,49.136640600000078],[-123.80554539999997,49.136613500000067],[-123.80595549999998,49.13653800000003],[-123.80625569999995,49.136526600000082],[-123.80636729999998,49.136545200000057],[-123.80643439999994,49.136580800000047],[-123.80676099999999,49.136610400000052],[-123.80698559999996,49.136630600000046],[-123.80717769999995,49.136691800000051],[-123.80723379999995,49.136790100000042],[-123.80731559999998,49.136780100000067],[-123.80738279999997,49.136726000000067],[-123.80743419999999,49.136796100000026],[-123.80743149999995,49.137198000000069],[-123.80751369999996,49.137228700000037],[-123.80756559999998,49.136797900000033],[-123.80762959999998,49.136724600000036],[-123.80776789999999,49.136687600000073],[-123.80791709999994,49.136677600000041],[-123.80863259999995,49.136780100000067],[-123.80892079999995,49.136805800000047],[-123.81009949999998,49.136842800000068],[-123.81048569999996,49.136884100000032],[-123.81132219999995,49.136887000000058],[-123.81168969999999,49.136821500000053],[-123.81180069999999,49.136821500000053],[-123.81203419999997,49.136882700000058],[-123.81225479999995,49.136971000000074],[-123.81236539999998,49.136979500000052],[-123.81266519999997,49.136976700000048],[-123.81315859999995,49.136919700000078],[-123.81396729999994,49.136941100000058],[-123.81509309999996,49.136932500000057],[-123.81561179999994,49.136802900000077],[-123.81585629999995,49.136774500000058],[-123.81619989999996,49.136708900000031],[-123.81656809999998,49.136599300000057],[-123.81692399999997,49.136577900000077],[-123.81699079999999,49.136532300000056],[-123.81701689999994,49.136415600000078],[-123.81710999999996,49.136280300000067]]},"properties":{"OBJECTID":2,"fid_1":109,"osm_id":-8319674,"access":" ","addr_house":" ","addr_hou_1":" ","addr_inter":" ","admin_leve":" ","aerialway":" ","aeroway":" ","amenity":" ","area":" ","barrier":" ","bicycle":" ","brand":" ","bridge":" ","boundary":" ","building":" ","constructi":" ","covered":" ","culvert":" ","cutting":" ","denominati":" ","disused":" ","embankment":" ","foot":" ","generator_":" ","harbour":" ","highway":" ","historic":" ","horse":" ","intermitte":" ","junction":" ","landuse":" ","layer":" ","leisure":" ","lock":" ","man_made":" ","military":" ","motorcar":" ","name":"Mudge Island","natural":" ","office":" ","oneway":" ","operator":" ","place":"island","population":" ","power":" ","power_sour":" ","public_tra":" ","railway":" ","ref":" ","religion":" ","route":" ","service":" ","shop":" ","sport":" ","surface":" ","toll":" ","tourism":" ","tower_type":" ","tracktype":" ","tunnel":" ","water":" ","waterway":" ","wetland":" ","width":" ","wood":" ","z_order":0,"way_area":5226630,"path":"C:/Users/brian520.stu/Desktop/Final Project/GIS_projects/created_layers/project_geopackage.gpkg|layername=mudge_island_boundary","Shape_Length":0.1168462143852689}}]}